{"type": "FeatureCollection", "features": [ {"type": "Feature", "properties": {"norad_id": 37834, "name": "INTELSAT 18 (IS-18)", "group": "intelsat", "lat": -0.01382311516131766, "lon": 159.08883308582486, "alt_km": 35786.77762212025, "timestamp": "2025-12-02T17:49:11.693508+00:00", "meta": {"OBJECT_NAME": "INTELSAT 18 (IS-18)", "OBJECT_ID": "2011-056A", "EPOCH": "2025-12-02T11:35:38.855904", "MEAN_MOTION": 1.00271002, "ECCENTRICITY": 0.0002115, "INCLINATION": 0.0191, "RA_OF_ASC_NODE": 325.0376, "ARG_OF_PERICENTER": 287.2555, "MEAN_ANOMALY": 173.206, "EPHEMERIS_TYPE": 0, "CLASSIFICATION_TYPE": "U", "NORAD_CAT_ID": 37834, "ELEMENT_SET_NO": 999, "REV_AT_EPOCH": 5183, "BSTAR": 0, "MEAN_MOTION_DOT": 7.3e-07, "MEAN_MOTION_DDOT": 0}, "tle": {"line1": "1 37834U 11056A   25336.48308861  .00000073  00000+0  00000+0 0  9993", "line2": "2 37834   0.0191 325.0376 0002115 287.2555 173.2060  1.00271002 51836"}}, "geometry": {"type": "Point", "coordinates": [159.08883308582486, -0.01382311516131766]}}, {"type": "Feature", "properties": {"norad_id": 38098, "name": "INTELSAT 22 (IS-22)", "group": "intelsat", "lat": 0.018467451664565177, "lon": 51.23215570196712, "alt_km": 35792.46903994844, "timestamp": "2025-12-02T17:49:11.693521+00:00", "meta": {"OBJECT_NAME": "INTELSAT 22 (IS-22)", "OBJECT_ID": "2012-011A", "EPOCH": "2025-12-02T08:59:30.072768", "MEAN_MOTION": 1.00271789, "ECCENTRICITY": 0.0001724, "INCLINATION": 0.0023, "RA_OF_ASC_NODE": 0.636, "ARG_OF_PERICENTER": 259.5903, "MEAN_ANOMALY": 18.2379, "EPHEMERIS_TYPE": 0, "CLASSIFICATION_TYPE": "U", "NORAD_CAT_ID": 38098, "ELEMENT_SET_NO": 999, "REV_AT_EPOCH": 521, "BSTAR": 0, "MEAN_MOTION_DOT": -3.8e-07, "MEAN_MOTION_DDOT": 0}, "tle": {"line1": "1 38098U 12011A   25336.37465362 -.00000038  00000+0  00000+0 0  9998", "line2": "2 38098   0.0023   0.6360 0001724 259.5903  18.2379  1.00271789  5210"}}, "geometry": {"type": "Point", "coordinates": [51.23215570196712, 0.018467451664565177]}}, {"type": "Feature", "properties": {"norad_id": 38356, "name": "INTELSAT 19 (IS-19)", "group": "intelsat", "lat": -0.0056629300007144815, "lon": 145.0958738714607, "alt_km": 35791.55543537996, "timestamp": "2025-12-02T17:49:11.693533+00:00", "meta": {"OBJECT_NAME": "INTELSAT 19 (IS-19)", "OBJECT_ID": "2012-030A", "EPOCH": "2025-12-02T11:51:38.549952", "MEAN_MOTION": 1.00271622, "ECCENTRICITY": 0.0003442, "INCLINATION": 0.0098, "RA_OF_ASC_NODE": 317.9936, "ARG_OF_PERICENTER": 299.0706, "MEAN_ANOMALY": 158.4635, "EPHEMERIS_TYPE": 0, "CLASSIFICATION_TYPE": "U", "NORAD_CAT_ID": 38356, "ELEMENT_SET_NO": 999, "REV_AT_EPOCH": 4847, "BSTAR": 0, "MEAN_MOTION_DOT": -3.6e-07, "MEAN_MOTION_DDOT": 0}, "tle": {"line1": "1 38356U 12030A   25336.49419618 -.00000036  00000+0  00000+0 0  9990", "line2": "2 38356   0.0098 317.9936 0003442 299.0706 158.4635  1.00271622 48474"}}, "geometry": {"type": "Point", "coordinates": [145.0958738714607, -0.0056629300007144815]}}, {"type": "Feature", "properties": {"norad_id": 38740, "name": "INTELSAT 20 (IS-20)", "group": "intelsat", "lat": 0.0347874255992472, "lon": 47.56678687078072, "alt_km": 35797.34116401814, "timestamp": "2025-12-02T17:49:11.693545+00:00", "meta": {"OBJECT_NAME": "INTELSAT 20 (IS-20)", "OBJECT_ID": "2012-043A", "EPOCH": "2025-12-02T00:24:39.918816", "MEAN_MOTION": 1.00268447, "ECCENTRICITY": 0.00030847, "INCLINATION": 0.0115, "RA_OF_ASC_NODE": 324.2147, "ARG_OF_PERICENTER": 225.9347, "MEAN_ANOMALY": 315.6275, "EPHEMERIS_TYPE": 0, "CLASSIFICATION_TYPE": "U", "NORAD_CAT_ID": 38740, "ELEMENT_SET_NO": 999, "REV_AT_EPOCH": 4877, "BSTAR": 0, "MEAN_MOTION_DOT": 0, "MEAN_MOTION_DDOT": 0}, "tle": {"line1": "1 38740U 12043A   25336.01712869  .00000000  00000+0  00000+0 0  9993", "line2": "2 38740   0.0115 324.2147 0003084 225.9347 315.6275  1.00268447 48778"}}, "geometry": {"type": "Point", "coordinates": [47.56678687078072, 0.0347874255992472]}}, {"type": "Feature", "properties": {"norad_id": 38749, "name": "INTELSAT 21 (IS-21)", "group": "intelsat", "lat": -0.02171675334376473, "lon": -78.86219782061573, "alt_km": 35778.89259646449, "timestamp": "2025-12-02T17:49:11.693557+00:00", "meta": {"OBJECT_NAME": "INTELSAT 21 (IS-21)", "OBJECT_ID": "2012-045A", "EPOCH": "2025-12-02T08:22:18.633792", "MEAN_MOTION": 1.00269456, "ECCENTRICITY": 0.0002416, "INCLINATION": 0.0155, "RA_OF_ASC_NODE": 315.7121, "ARG_OF_PERICENTER": 285.7703, "MEAN_ANOMALY": 257.5597, "EPHEMERIS_TYPE": 0, "CLASSIFICATION_TYPE": "U", "NORAD_CAT_ID": 38749, "ELEMENT_SET_NO": 999, "REV_AT_EPOCH": 4855, "BSTAR": 0, "MEAN_MOTION_DOT": -2.64e-06, "MEAN_MOTION_DDOT": 0}, "tle": {"line1": "1 38749U 12045A   25336.34882678 -.00000264  00000+0  00000+0 0  9999", "line2": "2 38749   0.0155 315.7121 0002416 285.7703 257.5597  1.00269456 48554"}}, "geometry": {"type": "Point", "coordinates": [-78.86219782061573, -0.02171675334376473]}}, {"type": "Feature", "properties": {"norad_id": 38867, "name": "INTELSAT 23 (IS-23)", "group": "intelsat", "lat": -0.01901076060046457, "lon": -73.86584124557156, "alt_km": 35784.30491513055, "timestamp": "2025-12-02T17:49:11.693569+00:00", "meta": {"OBJECT_NAME": "INTELSAT 23 (IS-23)", "OBJECT_ID": "2012-057A", "EPOCH": "2025-12-02T08:23:48.492384", "MEAN_MOTION": 1.00270434, "ECCENTRICITY": 0.0001777, "INCLINATION": 0.0447, "RA_OF_ASC_NODE": 122.8746, "ARG_OF_PERICENTER": 90.0275, "MEAN_ANOMALY": 291.5085, "EPHEMERIS_TYPE": 0, "CLASSIFICATION_TYPE": "U", "NORAD_CAT_ID": 38867, "ELEMENT_SET_NO": 999, "REV_AT_EPOCH": 4798, "BSTAR": 0, "MEAN_MOTION_DOT": -2.64e-06, "MEAN_MOTION_DDOT": 0}, "tle": {"line1": "1 38867U 12057A   25336.34986681 -.00000264  00000+0  00000+0 0  9992", "line2": "2 38867   0.0447 122.8746 0001777  90.0275 291.5085  1.00270434 47983"}}, "geometry": {"type": "Point", "coordinates": [-73.86584124557156, -0.01901076060046457]}}, {"type": "Feature", "properties": {"norad_id": 39360, "name": "FM-6", "group": "intelsat", "lat": 0.01623192926841836, "lon": -137.01464240611134, "alt_km": 35778.351455245276, "timestamp": "2025-12-02T17:49:11.693581+00:00", "meta": {"OBJECT_NAME": "FM-6", "OBJECT_ID": "2013-058A", "EPOCH": "2025-12-02T10:37:38.766720", "MEAN_MOTION": 1.00270976, "ECCENTRICITY": 0.0002928, "INCLINATION": 0.006, "RA_OF_ASC_NODE": 110.7073, "ARG_OF_PERICENTER": 62.3341, "MEAN_ANOMALY": 301.7644, "EPHEMERIS_TYPE": 0, "CLASSIFICATION_TYPE": "U", "NORAD_CAT_ID": 39360, "ELEMENT_SET_NO": 999, "REV_AT_EPOCH": 4410, "BSTAR": 0, "MEAN_MOTION_DOT": 4e-08, "MEAN_MOTION_DDOT": 0}, "tle": {"line1": "1 39360U 13058A   25336.44280980  .00000004  00000+0  00000+0 0  9994", "line2": "2 39360   0.0060 110.7073 0002928  62.3341 301.7644  1.00270976 44104"}}, "geometry": {"type": "Point", "coordinates": [-137.01464240611134, 0.01623192926841836]}}, {"type": "Feature", "properties": {"norad_id": 40271, "name": "INTELSAT 30 (IS-30)", "group": "intelsat", "lat": -0.03005745623198301, "lon": -115.91327354804606, "alt_km": 35791.269917360856, "timestamp": "2025-12-02T17:49:11.693592+00:00", "meta": {"OBJECT_NAME": "INTELSAT 30 (IS-30)", "OBJECT_ID": "2014-062A", "EPOCH": "2025-12-02T01:21:41.954976", "MEAN_MOTION": 1.00274289, "ECCENTRICITY": 0.00015346, "INCLINATION": 0.0117, "RA_OF_ASC_NODE": 354.2124, "ARG_OF_PERICENTER": 95.5309, "MEAN_ANOMALY": 266.8075, "EPHEMERIS_TYPE": 0, "CLASSIFICATION_TYPE": "U", "NORAD_CAT_ID": 40271, "ELEMENT_SET_NO": 999, "REV_AT_EPOCH": 480, "BSTAR": 0, "MEAN_MOTION_DOT": -1.3e-06, "MEAN_MOTION_DDOT": 0}, "tle": {"line1": "1 40271U 14062A   25336.05673559 -.00000130  00000+0  00000+0 0  9999", "line2": "2 40271   0.0117 354.2124 0001534  95.5309 266.8075  1.00274289  4809"}}, "geometry": {"type": "Point", "coordinates": [-115.91327354804606, -0.03005745623198301]}}, {"type": "Feature", "properties": {"norad_id": 40333, "name": "DIRECTV 14", "group": "intelsat", "lat": -0.03241179423110247, "lon": -120.10879833221551, "alt_km": 35784.85010226257, "timestamp": "2025-12-02T17:49:11.693604+00:00", "meta": {"OBJECT_NAME": "DIRECTV 14", "OBJECT_ID": "2014-078B", "EPOCH": "2025-12-02T08:59:15.225792", "MEAN_MOTION": 1.00270629, "ECCENTRICITY": 3.72e-05, "INCLINATION": 0.0093, "RA_OF_ASC_NODE": 318.2125, "ARG_OF_PERICENTER": 276.9162, "MEAN_ANOMALY": 231.9434, "EPHEMERIS_TYPE": 0, "CLASSIFICATION_TYPE": "U", "NORAD_CAT_ID": 40333, "ELEMENT_SET_NO": 999, "REV_AT_EPOCH": 4007, "BSTAR": 0, "MEAN_MOTION_DOT": -1.05e-06, "MEAN_MOTION_DDOT": 0}, "tle": {"line1": "1 40333U 14078B   25336.37448178 -.00000105  00000+0  00000+0 0  9999", "line2": "2 40333   0.0093 318.2125 0000372 276.9162 231.9434  1.00270629 40078"}}, "geometry": {"type": "Point", "coordinates": [-120.10879833221551, -0.03241179423110247]}}, {"type": "Feature", "properties": {"norad_id": 40663, "name": "DIRECTV 15", "group": "intelsat", "lat": -0.0145550829151816, "lon": -123.76097530330817, "alt_km": 35785.55999444945, "timestamp": "2025-12-02T17:49:11.693615+00:00", "meta": {"OBJECT_NAME": "DIRECTV 15", "OBJECT_ID": "2015-026A", "EPOCH": "2025-12-01T15:02:03.106176", "MEAN_MOTION": 1.00270344, "ECCENTRICITY": 2.258e-05, "INCLINATION": 0.0414, "RA_OF_ASC_NODE": 104.2594, "ARG_OF_PERICENTER": 141.9125, "MEAN_ANOMALY": 307.2149, "EPHEMERIS_TYPE": 0, "CLASSIFICATION_TYPE": "U", "NORAD_CAT_ID": 40663, "ELEMENT_SET_NO": 999, "REV_AT_EPOCH": 3848, "BSTAR": 0, "MEAN_MOTION_DOT": -8.1e-07, "MEAN_MOTION_DDOT": 0}, "tle": {"line1": "1 40663U 15026A   25335.62642484 -.00000081  00000+0  00000+0 0  9995", "line2": "2 40663   0.0414 104.2594 0000225 141.9125 307.2149  1.00270344 38487"}}, "geometry": {"type": "Point", "coordinates": [-123.76097530330817, -0.0145550829151816]}}]}